[{"OBJECT_NAME":"STARLINK-3656","OBJECT_ID":"2022-025Z","EPOCH":"2023-06-04T23:38:34.159776","MEAN_MOTION":15.0884186,"ECCENTRICITY":0.0001144,"INCLINATION":53.2166,"RA_OF_ASC_NODE":247.3655,"ARG_OF_PERICENTER":87.7538,"MEAN_ANOMALY":272.3585,"EPHEMERIS_TYPE":0,"CLASSIFICATION_TYPE":"U","NORAD_CAT_ID":51979,"ELEMENT_SET_NO":999,"REV_AT_EPOCH":6989,"BSTAR":0.00013919,"MEAN_MOTION_DOT":1.928e-5,"MEAN_MOTION_DDOT":0},{"OBJECT_NAME":"STARLINK-3649","OBJECT_ID":"2022-025AA","EPOCH":"2023-06-04T23:06:46.336320","MEAN_MOTION":15.08840809,"ECCENTRICITY":8.59e-5,"INCLINATION":53.216,"RA_OF_ASC_NODE":247.4726,"ARG_OF_PERICENTER":95.4101,"MEAN_ANOMALY":264.6989,"EPHEMERIS_TYPE":0,"CLASSIFICATION_TYPE":"U","NORAD_CAT_ID":51980,"ELEMENT_SET_NO":999,"REV_AT_EPOCH":6986,"BSTAR":0.00010017,"MEAN_MOTION_DOT":1.307e-5,"MEAN_MOTION_DDOT":0},{"OBJECT_NAME":"STARLINK-3635","OBJECT_ID":"2022-025AB","EPOCH":"2023-06-04T13:55:39.144288","MEAN_MOTION":15.08842465,"ECCENTRICITY":8.06e-5,"INCLINATION":53.2156,"RA_OF_ASC_NODE":249.1911,"ARG_OF_PERICENTER":102.6828,"MEAN_ANOMALY":257.4254,"EPHEMERIS_TYPE":0,"CLASSIFICATION_TYPE":"U","NORAD_CAT_ID":51981,"ELEMENT_SET_NO":999,"REV_AT_EPOCH":6871,"BSTAR":7.4171e-5,"MEAN_MOTION_DOT":8.93e-6,"MEAN_MOTION_DDOT":0},{"OBJECT_NAME":"STARLINK-3650","OBJECT_ID":"2022-025AC","EPOCH":"2023-06-05T02:12:14.620032","MEAN_MOTION":15.08843137,"ECCENTRICITY":7.87e-5,"INCLINATION":53.2156,"RA_OF_ASC_NODE":246.892,"ARG_OF_PERICENTER":72.6252,"MEAN_ANOMALY":287.4826,"EPHEMERIS_TYPE":0,"CLASSIFICATION_TYPE":"U","NORAD_CAT_ID":51982,"ELEMENT_SET_NO":999,"REV_AT_EPOCH":6989,"BSTAR":0.0001276,"MEAN_MOTION_DOT":1.744e-5,"MEAN_MOTION_DDOT":0},{"OBJECT_NAME":"STARLINK-3655","OBJECT_ID":"2022-025AD","EPOCH":"2023-06-04T13:50:21.409152","MEAN_MOTION":15.08841211,"ECCENTRICITY":8.64e-5,"INCLINATION":53.2168,"RA_OF_ASC_NODE":249.2072,"ARG_OF_PERICENTER":75.5518,"MEAN_ANOMALY":284.557,"EPHEMERIS_TYPE":0,"CLASSIFICATION_TYPE":"U","NORAD_CAT_ID":51983,"ELEMENT_SET_NO":999,"REV_AT_EPOCH":6983,"BSTAR":0.00019073,"MEAN_MOTION_DOT":2.749e-5,"MEAN_MOTION_DDOT":0},{"OBJECT_NAME":"STARLINK-3664","OBJECT_ID":"2022-025AE","EPOCH":"2023-06-05T03:15:49.936896","MEAN_MOTION":15.08838622,"ECCENTRICITY":7.66e-5,"INCLINATION":53.2162,"RA_OF_ASC_NODE":246.6919,"ARG_OF_PERICENTER":99.4348,"MEAN_ANOMALY":260.6731,"EPHEMERIS_TYPE":0,"CLASSIFICATION_TYPE":"U","NORAD_CAT_ID":51984,"ELEMENT_SET_NO":999,"REV_AT_EPOCH":6990,"BSTAR":5.3803e-5,"MEAN_MOTION_DOT":5.69e-6,"MEAN_MOTION_DDOT":0},{"OBJECT_NAME":"STARLINK-3651","OBJECT_ID":"2022-025AF","EPOCH":"2023-06-04T13:41:08.277216","MEAN_MOTION":15.08841789,"ECCENTRICITY":0.0001123,"INCLINATION":53.2173,"RA_OF_ASC_NODE":249.2404,"ARG_OF_PERICENTER":87.7397,"MEAN_ANOMALY":272.3724,"EPHEMERIS_TYPE":0,"CLASSIFICATION_TYPE":"U","NORAD_CAT_ID":51985,"ELEMENT_SET_NO":999,"REV_AT_EPOCH":6871,"BSTAR":0.00010523,"MEAN_MOTION_DOT":1.387e-5,"MEAN_MOTION_DDOT":0},{"OBJECT_NAME":"STARLINK-3645","OBJECT_ID":"2022-025AG","EPOCH":"2023-06-05T01:08:37.459392","MEAN_MOTION":15.08842312,"ECCENTRICITY":7.98e-5,"INCLINATION":53.2158,"RA_OF_ASC_NODE":246.9356,"ARG_OF_PERICENTER":74.302,"MEAN_ANOMALY":285.8061,"EPHEMERIS_TYPE":0,"CLASSIFICATION_TYPE":"U","NORAD_CAT_ID":51986,"ELEMENT_SET_NO":999,"REV_AT_EPOCH":6988,"BSTAR":0.0001363,"MEAN_MOTION_DOT":1.882e-5,"MEAN_MOTION_DDOT":0},{"OBJECT_NAME":"STARLINK-3644","OBJECT_ID":"2022-025AH","EPOCH":"2023-06-05T01:51:03.081600","MEAN_MOTION":15.0883294,"ECCENTRICITY":7.84e-5,"INCLINATION":53.2167,"RA_OF_ASC_NODE":246.9558,"ARG_OF_PERICENTER":124.1601,"MEAN_ANOMALY":235.9466,"EPHEMERIS_TYPE":0,"CLASSIFICATION_TYPE":"U","NORAD_CAT_ID":51987,"ELEMENT_SET_NO":999,"REV_AT_EPOCH":6988,"BSTAR":1.6346e-5,"MEAN_MOTION_DOT":-2.8e-7,"MEAN_MOTION_DDOT":0},{"OBJECT_NAME":"STARLINK-3640","OBJECT_ID":"2022-025AJ","EPOCH":"2023-06-04T15:52:14.053728","MEAN_MOTION":15.08841476,"ECCENTRICITY":9.56e-5,"INCLINATION":53.2166,"RA_OF_ASC_NODE":248.823,"ARG_OF_PERICENTER":95.4031,"MEAN_ANOMALY":264.707,"EPHEMERIS_TYPE":0,"CLASSIFICATION_TYPE":"U","NORAD_CAT_ID":51988,"ELEMENT_SET_NO":999,"REV_AT_EPOCH":6873,"BSTAR":8.0639e-5,"MEAN_MOTION_DOT":9.96e-6,"MEAN_MOTION_DDOT":0},{"OBJECT_NAME":"STARLINK-3642","OBJECT_ID":"2022-025AK","EPOCH":"2023-06-04T13:02:39.526656","MEAN_MOTION":15.08840663,"ECCENTRICITY":8.34e-5,"INCLINATION":53.2167,"RA_OF_ASC_NODE":249.3525,"ARG_OF_PERICENTER":89.6032,"MEAN_ANOMALY":270.5056,"EPHEMERIS_TYPE":0,"CLASSIFICATION_TYPE":"U","NORAD_CAT_ID":51989,"ELEMENT_SET_NO":999,"REV_AT_EPOCH":6981,"BSTAR":0.00011138,"MEAN_MOTION_DOT":1.485e-5,"MEAN_MOTION_DDOT":0},{"OBJECT_NAME":"STARLINK-3657","OBJECT_ID":"2022-025AL","EPOCH":"2023-06-05T04:11:28.854528","MEAN_MOTION":15.08825856,"ECCENTRICITY":8.88e-5,"INCLINATION":53.2154,"RA_OF_ASC_NODE":226.5201,"ARG_OF_PERICENTER":89.0128,"MEAN_ANOMALY":271.0966,"EPHEMERIS_TYPE":0,"CLASSIFICATION_TYPE":"U","NORAD_CAT_ID":51990,"ELEMENT_SET_NO":999,"REV_AT_EPOCH":7018,"BSTAR":0.0002099,"MEAN_MOTION_DOT":3.053e-5,"MEAN_MOTION_DDOT":0},{"OBJECT_NAME":"STARLINK-3652","OBJECT_ID":"2022-025AM","EPOCH":"2023-06-05T01:35:08.519712","MEAN_MOTION":15.08840018,"ECCENTRICITY":8.79e-5,"INCLINATION":53.2162,"RA_OF_ASC_NODE":247.0057,"ARG_OF_PERICENTER":120.1846,"MEAN_ANOMALY":239.9233,"EPHEMERIS_TYPE":0,"CLASSIFICATION_TYPE":"U","NORAD_CAT_ID":51991,"ELEMENT_SET_NO":999,"REV_AT_EPOCH":6988,"BSTAR":1.0866e-5,"MEAN_MOTION_DOT":-1.15e-6,"MEAN_MOTION_DDOT":0},{"OBJECT_NAME":"STARLINK-3643","OBJECT_ID":"2022-025AN","EPOCH":"2023-06-04T21:34:02.009568","MEAN_MOTION":15.08838183,"ECCENTRICITY":7.64e-5,"INCLINATION":53.2159,"RA_OF_ASC_NODE":227.7596,"ARG_OF_PERICENTER":84.5458,"MEAN_ANOMALY":275.5621,"EPHEMERIS_TYPE":0,"CLASSIFICATION_TYPE":"U","NORAD_CAT_ID":51992,"ELEMENT_SET_NO":999,"REV_AT_EPOCH":6861,"BSTAR":8.3153e-5,"MEAN_MOTION_DOT":1.036e-5,"MEAN_MOTION_DDOT":0},{"OBJECT_NAME":"STARLINK-3648","OBJECT_ID":"2022-025AP","EPOCH":"2023-06-04T15:46:55.696512","MEAN_MOTION":15.0884458,"ECCENTRICITY":6.67e-5,"INCLINATION":53.2168,"RA_OF_ASC_NODE":248.8397,"ARG_OF_PERICENTER":62.2509,"MEAN_ANOMALY":297.8551,"EPHEMERIS_TYPE":0,"CLASSIFICATION_TYPE":"U","NORAD_CAT_ID":51993,"ELEMENT_SET_NO":999,"REV_AT_EPOCH":6873,"BSTAR":0.00012855,"MEAN_MOTION_DOT":1.759e-5,"MEAN_MOTION_DDOT":0},{"OBJECT_NAME":"STARLINK-3647","OBJECT_ID":"2022-025AQ","EPOCH":"2023-06-04T21:28:43.992768","MEAN_MOTION":15.08839516,"ECCENTRICITY":8.71e-5,"INCLINATION":53.2169,"RA_OF_ASC_NODE":227.7755,"ARG_OF_PERICENTER":79.8739,"MEAN_ANOMALY":280.2351,"EPHEMERIS_TYPE":0,"CLASSIFICATION_TYPE":"U","NORAD_CAT_ID":51994,"ELEMENT_SET_NO":999,"REV_AT_EPOCH":6862,"BSTAR":0.00010434,"MEAN_MOTION_DOT":1.373e-5,"MEAN_MOTION_DDOT":0},{"OBJECT_NAME":"STARLINK-3636","OBJECT_ID":"2022-025AR","EPOCH":"2023-06-05T02:30:47.486592","MEAN_MOTION":15.08837771,"ECCENTRICITY":8.59e-5,"INCLINATION":53.2152,"RA_OF_ASC_NODE":226.8364,"ARG_OF_PERICENTER":97.4966,"MEAN_ANOMALY":262.6124,"EPHEMERIS_TYPE":0,"CLASSIFICATION_TYPE":"U","NORAD_CAT_ID":51995,"ELEMENT_SET_NO":999,"REV_AT_EPOCH":7016,"BSTAR":7.4098e-5,"MEAN_MOTION_DOT":8.92e-6,"MEAN_MOTION_DDOT":0}]
