STARLINK-3656           
1 51979U 22025Z   23155.98511759  .00001928  00000+0  13919-3 0  9998
2 51979  53.2166 247.3655 0001144  87.7538 272.3585 15.08841860 69891
STARLINK-3649           
1 51980U 22025AA  23155.96303630  .00001307  00000+0  10017-3 0  9992
2 51980  53.2160 247.4726 0000859  95.4101 264.6989 15.08840809 69862
STARLINK-3635           
1 51981U 22025AB  23155.58031417  .00000893  00000+0  74171-4 0  9993
2 51981  53.2156 249.1911 0000806 102.6828 257.4254 15.08842465 68710
STARLINK-3650           
1 51982U 22025AC  23156.09183588  .00001744  00000+0  12760-3 0  9999
2 51982  53.2156 246.8920 0000787  72.6252 287.4826 15.08843137 69895
STARLINK-3655           
1 51983U 22025AD  23155.57663668  .00002749  00000+0  19073-3 0  9994
2 51983  53.2168 249.2072 0000864  75.5518 284.5570 15.08841211 69836
STARLINK-3664           
1 51984U 22025AE  23156.13599464  .00000569  00000+0  53803-4 0  9998
2 51984  53.2162 246.6919 0000766  99.4348 260.6731 15.08838622 69903
STARLINK-3651           
1 51985U 22025AF  23155.57023469  .00001387  00000+0  10523-3 0  9993
2 51985  53.2173 249.2404 0001123  87.7397 272.3724 15.08841789 68714
STARLINK-3645           
1 51986U 22025AG  23156.04765578  .00001882  00000+0  13630-3 0  9993
2 51986  53.2158 246.9356 0000798  74.3020 285.8061 15.08842312 69885
STARLINK-3644           
1 51987U 22025AH  23156.07711900 -.00000028  00000+0  16346-4 0  9997
2 51987  53.2167 246.9558 0000784 124.1601 235.9466 15.08832940 69885
STARLINK-3640           
1 51988U 22025AJ  23155.66127377  .00000996  00000+0  80639-4 0  9990
2 51988  53.2166 248.8230 0000956  95.4031 264.7070 15.08841476 68739
STARLINK-3642           
1 51989U 22025AK  23155.54351304  .00001485  00000+0  11138-3 0  9998
2 51989  53.2167 249.3525 0000834  89.6032 270.5056 15.08840663 69811
STARLINK-3657           
1 51990U 22025AL  23156.17463952  .00003053  00000+0  20990-3 0  9992
2 51990  53.2154 226.5201 0000888  89.0128 271.0966 15.08825856 70181
STARLINK-3652           
1 51991U 22025AM  23156.06607083 -.00000115  00000+0  10866-4 0  9995
2 51991  53.2162 247.0057 0000879 120.1846 239.9233 15.08840018 69884
STARLINK-3643           
1 51992U 22025AN  23155.89863437  .00001036  00000+0  83153-4 0  9994
2 51992  53.2159 227.7596 0000764  84.5458 275.5621 15.08838183 68616
STARLINK-3648           
1 51993U 22025AP  23155.65758908  .00001759  00000+0  12855-3 0  9997
2 51993  53.2168 248.8397 0000667  62.2509 297.8551 15.08844580 68732
STARLINK-3647           
1 51994U 22025AQ  23155.89495362  .00001373  00000+0  10434-3 0  9999
2 51994  53.2169 227.7755 0000871  79.8739 280.2351 15.08839516 68629
STARLINK-3636           
1 51995U 22025AR  23156.10471628  .00000892  00000+0  74098-4 0  9996
2 51995  53.2152 226.8364 0000859  97.4966 262.6124 15.08837771 70167
